start=new Date('2022-04-05T00:00:00.000Z').valueOf();
sats=[{"OBJECT_TYPE":"PAYLOAD","CENTER_NAME":"EARTH","RCS_SIZE":"LARGE","OBJECT_NAME":"STARLINK-2304","PERIAPSIS":"546.187","APOAPSIS":"548.340","MEAN_ELEMENT_THEORY":"SGP4","SITE":"AFETR","EPHEMERIS_TYPE":"0","MEAN_MOTION_DDOT":"0.0000000000000","REV_AT_EPOCH":"5957","RA_OF_ASC_NODE":"222.9692","ECCENTRICITY":"0.00015540","LAUNCH_DATE":"2021-03-14","REF_FRAME":"TEME","DECAY_DATE":null,"SEMIMAJOR_AXIS":"6925.398","MEAN_MOTION_DOT":"0.00003901","PERIOD":"95.593","FILE":"3388414","NORAD_CAT_ID":"47864","ARG_OF_PERICENTER":"60.4825","MEAN_MOTION":"15.06383766","TIME_SYSTEM":"UTC","EPOCH":"2022-04-04T19:53:56.703264","OBJECT_ID":"2021-021E","BSTAR":"0.00028078000000","MEAN_ANOMALY":"299.6319","INCLINATION":"53.0538","CLASSIFICATION_TYPE":"U","ELEMENT_SET_NO":"999","TLE_LINE1":"1 47864U 21021E   22094.82912851  .00003901  00000-0  28078-3 0  9999","COUNTRY_CODE":"US","GP_ID":"200438588","TLE_LINE2":"2 47864  53.0538 222.9692 0001554  60.4825 299.6319 15.06383766 59577"},{"REF_FRAME":"TEME","MEAN_MOTION_DOT":"0.00007346","PERIOD":"95.592","DECAY_DATE":null,"SEMIMAJOR_AXIS":"6925.349","MEAN_MOTION_DDOT":"0.0000000000000","SITE":"AFETR","EPHEMERIS_TYPE":"0","LAUNCH_DATE":"2021-03-14","REV_AT_EPOCH":"5946","RA_OF_ASC_NODE":"232.6492","ECCENTRICITY":"0.00013580","APOAPSIS":"548.154","MEAN_ELEMENT_THEORY":"SGP4","CENTER_NAME":"EARTH","RCS_SIZE":"LARGE","OBJECT_TYPE":"PAYLOAD","PERIAPSIS":"546.273","OBJECT_NAME":"STARLINK-2310","GP_ID":"200438570","TLE_LINE1":"1 47865U 21021F   22094.89549217  .00007346  00000-0  51152-3 0  9995","COUNTRY_CODE":"US","TLE_LINE2":"2 47865  53.0545 232.6492 0001358  66.6352 293.4780 15.06399884 59467","BSTAR":"0.00051152000000","EPOCH":"2022-04-04T21:29:30.523488","OBJECT_ID":"2021-021F","CLASSIFICATION_TYPE":"U","ELEMENT_SET_NO":"999","MEAN_ANOMALY":"293.4780","INCLINATION":"53.0545","MEAN_MOTION":"15.06399884","TIME_SYSTEM":"UTC","NORAD_CAT_ID":"47865","FILE":"3388412","ARG_OF_PERICENTER":"66.6352"},{"PERIAPSIS":"546.057","OBJECT_NAME":"STARLINK-2320","CENTER_NAME":"EARTH","RCS_SIZE":"LARGE","OBJECT_TYPE":"PAYLOAD","MEAN_ELEMENT_THEORY":"SGP4","APOAPSIS":"548.401","LAUNCH_DATE":"2021-03-14","REV_AT_EPOCH":"5941","ECCENTRICITY":"0.00016920","RA_OF_ASC_NODE":"234.1418","MEAN_MOTION_DDOT":"0.0000000000000","EPHEMERIS_TYPE":"0","SITE":"AFETR","MEAN_MOTION_DOT":"0.00004376","PERIOD":"95.592","DECAY_DATE":null,"SEMIMAJOR_AXIS":"6925.364","REF_FRAME":"TEME","ARG_OF_PERICENTER":"51.5443","NORAD_CAT_ID":"47866","FILE":"3387825","TIME_SYSTEM":"UTC","MEAN_MOTION":"15.06395004","CLASSIFICATION_TYPE":"U","ELEMENT_SET_NO":"999","INCLINATION":"53.0552","MEAN_ANOMALY":"308.5698","BSTAR":"0.00031250000000","EPOCH":"2022-04-04T13:37:07.097664","OBJECT_ID":"2021-021G","TLE_LINE1":"1 47866U 21021G   22094.56744326  .00004376  00000-0  31250-3 0  9995","COUNTRY_CODE":"US","GP_ID":"200401318","TLE_LINE2":"2 47866  53.0552 234.1418 0001692  51.5443 308.5698 15.06395004 59417"},{"EPHEMERIS_TYPE":"0","SITE":"AFETR","MEAN_MOTION_DDOT":"0.0000000000000","REV_AT_EPOCH":"5998","RA_OF_ASC_NODE":"224.1542","ECCENTRICITY":"0.00015820","LAUNCH_DATE":"2021-03-14","REF_FRAME":"TEME","SEMIMAJOR_AXIS":"6925.399","DECAY_DATE":null,"MEAN_MOTION_DOT":"0.00005900","PERIOD":"95.593","OBJECT_TYPE":"PAYLOAD","CENTER_NAME":"EARTH","RCS_SIZE":"LARGE","OBJECT_NAME":"STARLINK-2321","PERIAPSIS":"546.168","APOAPSIS":"548.360","MEAN_ELEMENT_THEORY":"SGP4","EPOCH":"2022-04-04T13:27:49.968000","OBJECT_ID":"2021-021H","BSTAR":"0.00041481000000","MEAN_ANOMALY":"290.6789","INCLINATION":"53.0542","CLASSIFICATION_TYPE":"U","ELEMENT_SET_NO":"999","TLE_LINE1":"1 47867U 21021H   22094.56099500  .00005900  00000-0  41481-3 0  9994","GP_ID":"200424316","COUNTRY_CODE":"US","TLE_LINE2":"2 47867  53.0542 224.1542 0001582  69.4370 290.6789 15.06383514 59986","FILE":"3387897","NORAD_CAT_ID":"47867","ARG_OF_PERICENTER":"69.4370","MEAN_MOTION":"15.06383514","TIME_SYSTEM":"UTC"},{"TIME_SYSTEM":"UTC","MEAN_MOTION":"15.06365127","ARG_OF_PERICENTER":"77.5626","NORAD_CAT_ID":"47868","FILE":"3387897","TLE_LINE2":"2 47868  53.0546 174.4834 0001609  77.5626 282.5543 15.06365127 60728","TLE_LINE1":"1 47868U 21021J   22094.48820584  .00008671  00000-0  60085-3 0  9999","COUNTRY_CODE":"US","GP_ID":"200425065","ELEMENT_SET_NO":"999","CLASSIFICATION_TYPE":"U","INCLINATION":"53.0546","MEAN_ANOMALY":"282.5543","BSTAR":"0.00060085000000","OBJECT_ID":"2021-021J","EPOCH":"2022-04-04T11:43:00.984576","MEAN_ELEMENT_THEORY":"SGP4","APOAPSIS":"548.435","PERIAPSIS":"546.206","OBJECT_NAME":"STARLINK-2323","RCS_SIZE":"LARGE","CENTER_NAME":"EARTH","OBJECT_TYPE":"PAYLOAD","PERIOD":"95.594","MEAN_MOTION_DOT":"0.00008671","DECAY_DATE":null,"SEMIMAJOR_AXIS":"6925.455","REF_FRAME":"TEME","LAUNCH_DATE":"2021-03-14","RA_OF_ASC_NODE":"174.4834","ECCENTRICITY":"0.00016090","REV_AT_EPOCH":"6072","MEAN_MOTION_DDOT":"0.0000000000000","EPHEMERIS_TYPE":"0","SITE":"AFETR"},{"ARG_OF_PERICENTER":"70.5144","FILE":"3387829","NORAD_CAT_ID":"47869","TIME_SYSTEM":"UTC","MEAN_MOTION":"15.06382563","INCLINATION":"53.0526","MEAN_ANOMALY":"289.6004","ELEMENT_SET_NO":"999","CLASSIFICATION_TYPE":"U","OBJECT_ID":"2021-021K","EPOCH":"2022-04-04T13:22:31.744704","BSTAR":"0.00024887000000","TLE_LINE2":"2 47869  53.0526 224.1866 0001468  70.5144 289.6004 15.06382563 59558","COUNTRY_CODE":"US","TLE_LINE1":"1 47869U 21021K   22094.55731186  .00003426  00000-0  24887-3 0  9990","GP_ID":"200401710","OBJECT_NAME":"STARLINK-2324","PERIAPSIS":"546.250","OBJECT_TYPE":"PAYLOAD","RCS_SIZE":"LARGE","CENTER_NAME":"EARTH","MEAN_ELEMENT_THEORY":"SGP4","APOAPSIS":"548.284","ECCENTRICITY":"0.00014680","RA_OF_ASC_NODE":"224.1866","REV_AT_EPOCH":"5955","LAUNCH_DATE":"2021-03-14","SITE":"AFETR","EPHEMERIS_TYPE":"0","MEAN_MOTION_DDOT":"0.0000000000000","SEMIMAJOR_AXIS":"6925.402","DECAY_DATE":null,"PERIOD":"95.593","MEAN_MOTION_DOT":"0.00003426","REF_FRAME":"TEME"},{"MEAN_MOTION_DOT":"0.00002094","PERIOD":"95.593","DECAY_DATE":null,"SEMIMAJOR_AXIS":"6925.391","REF_FRAME":"TEME","LAUNCH_DATE":"2021-03-14","REV_AT_EPOCH":"5957","RA_OF_ASC_NODE":"249.0890","ECCENTRICITY":"0.00015260","MEAN_MOTION_DDOT":"0.0000000000000","SITE":"AFETR","EPHEMERIS_TYPE":"0","MEAN_ELEMENT_THEORY":"SGP4","APOAPSIS":"548.313","PERIAPSIS":"546.199","OBJECT_NAME":"STARLINK-2326","CENTER_NAME":"EARTH","RCS_SIZE":"LARGE","OBJECT_TYPE":"PAYLOAD","TLE_LINE1":"1 47870U 21021L   22094.57527645  .00002094  00000-0  15952-3 0  9990","COUNTRY_CODE":"US","GP_ID":"200426048","TLE_LINE2":"2 47870  53.0531 249.0890 0001526  47.9667 312.1452 15.06386175 59576","ELEMENT_SET_NO":"999","CLASSIFICATION_TYPE":"U","INCLINATION":"53.0531","MEAN_ANOMALY":"312.1452","BSTAR":"0.00015952000000","EPOCH":"2022-04-04T13:48:23.885280","OBJECT_ID":"2021-021L","TIME_SYSTEM":"UTC","MEAN_MOTION":"15.06386175","ARG_OF_PERICENTER":"47.9667","NORAD_CAT_ID":"47870","FILE":"3387897"},{"REF_FRAME":"TEME","PERIOD":"95.593","MEAN_MOTION_DOT":"0.00003685","DECAY_DATE":null,"SEMIMAJOR_AXIS":"6925.407","MEAN_MOTION_DDOT":"0.0000000000000","SITE":"AFETR","EPHEMERIS_TYPE":"0","LAUNCH_DATE":"2021-03-14","RA_OF_ASC_NODE":"223.0147","ECCENTRICITY":"0.00016040","REV_AT_EPOCH":"5959","APOAPSIS":"548.382","MEAN_ELEMENT_THEORY":"SGP4","RCS_SIZE":"LARGE","CENTER_NAME":"EARTH","OBJECT_TYPE":"PAYLOAD","PERIAPSIS":"546.161","OBJECT_NAME":"STARLINK-2327","TLE_LINE2":"2 47871  53.0543 223.0147 0001604  66.0296 294.0861 15.06381071 59598","TLE_LINE1":"1 47871U 21021M   22094.81901136  .00003685  00000-0  26631-3 0  9992","COUNTRY_CODE":"US","GP_ID":"200438601","BSTAR":"0.00026631000000","OBJECT_ID":"2021-021M","EPOCH":"2022-04-04T19:39:22.581504","CLASSIFICATION_TYPE":"U","ELEMENT_SET_NO":"999","MEAN_ANOMALY":"294.0861","INCLINATION":"53.0543","MEAN_MOTION":"15.06381071","TIME_SYSTEM":"UTC","NORAD_CAT_ID":"47871","FILE":"3388421","ARG_OF_PERICENTER":"66.0296"},{"TLE_LINE2":"2 47872  53.0580 176.2488 0001830  26.8493 333.2600 15.30161585 60223","TLE_LINE1":"1 47872U 21021N   22094.50351755  .00009822  00000-0  34369-3 0  9991","COUNTRY_CODE":"US","GP_ID":"200438611","INCLINATION":"53.0580","MEAN_ANOMALY":"333.2600","ELEMENT_SET_NO":"999","CLASSIFICATION_TYPE":"U","OBJECT_ID":"2021-021N","EPOCH":"2022-04-04T12:05:03.916320","BSTAR":"0.00034369000000","TIME_SYSTEM":"UTC","MEAN_MOTION":"15.30161585","ARG_OF_PERICENTER":"26.8493","FILE":"3388415","NORAD_CAT_ID":"47872","DECAY_DATE":null,"SEMIMAJOR_AXIS":"6853.467","PERIOD":"94.108","MEAN_MOTION_DOT":"0.00009822","REF_FRAME":"TEME","RA_OF_ASC_NODE":"176.2488","ECCENTRICITY":"0.00018300","REV_AT_EPOCH":"6022","LAUNCH_DATE":"2021-03-14","SITE":"AFETR","EPHEMERIS_TYPE":"0","MEAN_MOTION_DDOT":"0.0000000000000","MEAN_ELEMENT_THEORY":"SGP4","APOAPSIS":"476.586","OBJECT_NAME":"STARLINK-2328","PERIAPSIS":"474.078","OBJECT_TYPE":"PAYLOAD","RCS_SIZE":"LARGE","CENTER_NAME":"EARTH"},{"DECAY_DATE":null,"SEMIMAJOR_AXIS":"6925.337","MEAN_MOTION_DOT":"0.00007823","PERIOD":"95.592","REF_FRAME":"TEME","REV_AT_EPOCH":"5959","ECCENTRICITY":"0.00015910","RA_OF_ASC_NODE":"222.7909","LAUNCH_DATE":"2021-03-14","EPHEMERIS_TYPE":"0","SITE":"AFETR","MEAN_MOTION_DDOT":"0.0000000000000","MEAN_ELEMENT_THEORY":"SGP4","APOAPSIS":"548.304","OBJECT_NAME":"STARLINK-2329","PERIAPSIS":"546.100","OBJECT_TYPE":"PAYLOAD","CENTER_NAME":"EARTH","RCS_SIZE":"LARGE","TLE_LINE1":"1 47873U 21021P   22094.86692209  .00007823  00000-0  54344-3 0  9997","COUNTRY_CODE":"US","GP_ID":"200438612","TLE_LINE2":"2 47873  53.0561 222.7909 0001591  54.9861 305.1277 15.06403733 59596","INCLINATION":"53.0561","MEAN_ANOMALY":"305.1277","ELEMENT_SET_NO":"999","CLASSIFICATION_TYPE":"U","EPOCH":"2022-04-04T20:48:22.068576","OBJECT_ID":"2021-021P","BSTAR":"0.00054344000000","TIME_SYSTEM":"UTC","MEAN_MOTION":"15.06403733","ARG_OF_PERICENTER":"54.9861","FILE":"3388415","NORAD_CAT_ID":"47873"}];
